382P/Larson,e,8.3752,173.3399,164.2047,6.081079,0.0657254,0.28090425,36.5599,06/27.0/2023,2000,g  8.0,4.0
# From MPEC 2022-OB6
383P/Christensen,e,12.3268,207.8179,133.7905,3.547327,0.1475205,0.59920507,197.5953,06/27.0/2023,2000,g 18.0,4.0
# From MPEC 2022-OB6
384P/Kowalski,e,7.2833,354.2164,37.6637,2.899466,0.1996306,0.61626575,270.1412,06/27.0/2023,2000,g 19.5,4.0
# From MPEC 2021-F20
385P/Hill,e,16.8294,357.0559,44.3680,4.288575,0.1109774,0.40212140,153.1411,06/27.0/2023,2000,g 13.0,4.0
# From MPEC 2021-L04
386P/PANSTARRS,e,15.2339,134.9282,353.0954,4.051975,0.1208381,0.41657777,125.8988,06/27.0/2023,2000,g 14.5,4.0
# From MPEC 2021-J28
387P/Boattini,e,8.9347,259.2360,162.8185,4.796984,0.0938105,0.73691323,130.2751,06/27.0/2023,2000,g 15.0,4.0
# From MPEC 2021-S45
388P/Gibbs,e,23.8903,37.0490,42.2909,5.240861,0.0821486,0.61891335,117.7494,06/27.0/2023,2000,g 13.0,4.0
# From MPEC 2022-OB6
389P/Siding Spring,e,160.0866,218.8837,249.3990,5.633587,0.0737100,0.70460269,93.9893,06/27.0/2023,2000,g 16.0,4.0
# From MPEC 2022-OB6
390P/Gibbs,e,18.5521,152.2637,232.4202,5.811762,0.0703465,0.70741653,83.7971,06/27.0/2023,2000,g 12.0,4.0
# From MPEC 2021-F20
391P/Kowalski,e,21.2633,124.7375,187.3348,4.685552,0.0971769,0.11942949,186.9027,06/27.0/2023,2000,g  8.0,4.0
# From MPEC 2021-J28
392P/LINEAR,e,4.9317,24.8839,71.8656,6.140486,0.0647739,0.68338040,76.5414,06/27.0/2023,2000,g 14.5,4.0
# From MPEC 2021-BE3
393P/Spacewatch-Hill,e,16.7876,36.3908,328.9645,4.794100,0.0938952,0.12038399,125.3529,06/27.0/2023,2000,g 11.0,4.0
# From MPEC 2020-KB7
394P/PANSTARRS,e,8.5297,98.1264,54.4316,4.329691,0.1094004,0.36748009,142.8354,06/27.0/2023,2000,g 16.0,2.4
# From MPEC 2023-J29
395P/Catalina-NEAT,e,3.4360,221.5713,94.5927,6.905328,0.0543160,0.40720997,28.3534,06/27.0/2023,2000,g 10.0,4.0
# From MPEC 2020-KB7
396P/,e,5.4376,136.6429,8.3692,6.804012,0.0555337,0.41593004,77.7235,06/27.0/2023,2000,g 12.0,4.0
# From MPEC 2022-OB6
397P/Lemmon,e,10.9286,8.1956,14.5478,3.830461,0.1314703,0.40524507,144.8829,06/27.0/2023,2000,g 12.0,4.0
# From MPEC 2021-L04
398P/Boattini,e,11.0185,127.4302,320.2114,3.126277,0.1783047,0.58323494,162.5984,06/27.0/2023,2000,g 15.5,4.0
# From MPEC 2022-M88
399P/PANSTARRS,e,13.3220,207.1309,214.3623,3.792395,0.1334546,0.44735447,102.1044,06/27.0/2023,2000,g 14.0,4.0
# From MPEC 2022-ED3
400P/PANSTARRS,e,10.9295,176.3894,238.8413,3.561760,0.1466247,0.40963802,127.0451,06/27.0/2023,2000,g 15.5,2.8
# From MPEC 2022-K19
401P/McNaught,e,12.8025,359.8875,309.4370,5.777446,0.0709742,0.57926612,92.1687,06/27.0/2023,2000,g 12.5,4.0
# From MPEC 2023-M14
402P/LINEAR,e,30.8400,123.0869,326.7820,7.028033,0.0528997,0.43963638,29.5741,06/27.0/2023,2000,g 11.2,4.0
# From MPEC 2021-J28
403P/Catalina,e,12.3200,163.8043,277.6473,5.429146,0.0779124,0.50405889,78.9430,06/27.0/2023,2000,g 12.0,4.0
# From MPEC 2023-J29
404P/Bressi,e,9.7825,260.0625,169.2347,4.743679,0.0953962,0.12879777,347.6740,06/27.0/2023,2000,g 10.0,4.0
# From MPEC 2021-F20
406P/Gibbs,e,1.2126,11.4995,352.4355,3.577424,0.1456627,0.54188751,147.7088,06/27.0/2023,2000,g 17.0,4.0
# From MPEC 2022-YN2
407P/PANSTARRS-Fuls,e,4.8742,80.3136,93.5750,3.479901,0.1518287,0.37862253,189.3166,06/27.0/2023,2000,g 14.0,4.0
# From MPEC 2023-J29
408P/Novichonok-Gerke,e,19.3569,189.4416,226.5061,4.742121,0.0954432,0.26872724,25.2621,06/27.0/2023,2000,g 11.0,4.0
# From MPEC 2022-ED3
409P/LONEOS-Hill,e,17.1243,143.6594,15.0811,6.036799,0.0664498,0.70965359,58.4775,06/27.0/2023,2000,g 14.0,4.0
# From MPEC 2022-M21
410P/NEAT-LINEAR,e,9.3912,139.9694,313.1222,6.643625,0.0575568,0.51134104,42.1983,06/27.0/2023,2000,g 12.5,4.0
# From MPEC 2021-J28
411P/Christensen,e,12.3850,77.6522,46.5840,5.812278,0.0703371,0.58102085,62.1495,06/27.0/2023,2000,g 13.5,4.0
# From MPEC 2021-F20
412P/WISE,e,8.9312,0.8451,155.9292,3.110317,0.1796789,0.47898205,167.8869,06/27.0/2023,2000,g 17.0,4.0
# From MPEC 2022-OB6
413P/Larson,e,15.9925,38.9397,186.6028,3.723455,0.1371781,0.42222697,96.9036,06/27.0/2023,2000,g 14.0,4.0
# From MPEC 2021-BE3
414P/STEREO,e,23.3998,257.8053,210.6923,2.793243,0.2111257,0.81186654,186.3474,06/27.0/2023,2000,g 19.0,4.0
# From MPEC 2022-J42
415P/Tenagra,e,31.7924,160.2840,345.9703,4.111471,0.1182247,0.19476747,102.0653,06/27.0/2023,2000,g 12.0,4.0
# From MPEC 2021-L04
416P/Scotti,e,3.3613,355.7932,134.4108,4.009180,0.1227781,0.45455070,105.7894,06/27.0/2023,2000,g 15.5,4.0
# From MPEC 2021-W31
417P/NEOWISE,e,8.1513,110.2292,130.0362,3.334145,0.1618927,0.56031394,128.4381,06/27.0/2023,2000,g 16.5,4.0
# From MPEC 2022-TA0
418P/LINEAR,e,5.7857,277.4094,307.5860,5.095431,0.0856905,0.66444837,52.9168,06/27.0/2023,2000,g 13.0,4.0
# From MPEC 2022-ST7
419P/PANSTARRS,e,2.8029,40.3898,187.7016,3.523276,0.1490336,0.27723136,90.4728,06/27.0/2023,2000,g 12.5,4.0
# From MPEC 2022-OB6
420P/Hill,e,14.4925,173.9075,156.7608,5.524751,0.0758988,0.49621772,30.4963,06/27.0/2023,2000,g 11.5,4.0
# From MPEC 2021-W31
421P/McNaught,e,10.0764,55.3360,259.8861,5.076389,0.0861731,0.67507695,76.0479,06/27.0/2023,2000,g 14.0,4.0
# From MPEC 2022-X67
422P/Christensen,e,39.5855,36.0285,304.9440,6.294052,0.0624178,0.50707330,33.1016,06/27.0/2023,2000,g 11.0,4.0
# From MPEC 2023-FK0
423P/Lemmon,e,8.3463,33.2953,80.3608,6.172164,0.0642759,0.12192631,41.5005,06/27.0/2023,2000,g  8.0,4.0
# From MPEC 2022-CN4
424P/LaSagra,e,8.6849,51.1629,312.5440,4.417486,0.1061552,0.69121130,64.0510,06/27.0/2023,2000,g 17.0,4.0
# From MPEC 2023-BF4
425P/Kowalski,e,16.4209,210.0744,200.8389,6.340490,0.0617333,0.54396234,39.7680,06/27.0/2023,2000,g 12.0,4.0
# From MPEC 2022-P82
426P/PANSTARRS,e,17.7645,280.4550,118.8157,3.190299,0.1729645,0.16189044,346.6009,06/27.0/2023,2000,g 13.5,4.0
# From MPEC 2023-J29
428P/Gibbs,e,8.5102,299.3393,36.8757,3.486107,0.1514234,0.51914094,117.1206,06/27.0/2023,2000,g 15.0,4.0
# From MPEC 2022-H04
429P/LINEAR-Hill,e,7.5195,322.0710,75.5998,3.553107,0.1471606,0.49141704,79.5757,06/27.0/2023,2000,g 15.5,4.0
# From MPEC 2022-L66
430P/Scotti,e,4.4753,54.6737,94.4455,3.105039,0.1801373,0.49959397,103.0106,06/27.0/2023,2000,g 16.5,4.0
# From MPEC 2023-D72
431P/Scotti,e,22.3926,202.8421,199.9171,3.474503,0.1521826,0.47779855,75.8659,06/27.0/2023,2000,g 14.0,4.0
# From MPEC 2021-U31
432P/PANSTARRS,e,10.0685,239.1374,105.2884,3.035965,0.1863197,0.24170472,124.0314,06/27.0/2023,2000,g 17.0,4.0
# From MPEC 2022-OB6
434P/Tenagra,e,6.3371,288.9580,128.1896,4.131535,0.1173645,0.27470630,71.4232,06/27.0/2023,2000,g 13.0,4.0
# From MPEC 2021-W31
435P/PANSTARRS,e,18.8779,98.5466,244.2159,3.019417,0.1878536,0.31840311,131.4177,06/27.0/2023,2000,g 17.0,4.0
# From MPEC 2022-X67
436P/Garradd,e,20.2053,87.1825,282.6506,5.932219,0.0682148,0.66978523,38.5736,06/27.0/2023,2000,g 14.5,4.0
# From MPEC 2023-B57
437P/Lemmon-PANSTARRS,e,3.6888,245.8564,206.7899,4.562609,0.1011310,0.25472438,31.5713,06/27.0/2023,2000,g 13.0,4.0
# From MPEC 2021-W47
438P/Christensen,e,8.2829,260.1339,59.0247,3.849288,0.1305069,0.41511203,153.7512,06/27.0/2023,2000,g 14.5,4.0
# From MPEC 2022-C56
439P/LINEAR,e,7.1146,56.4013,342.0739,3.489837,0.1511807,0.46960720,101.2492,06/27.0/2023,2000,g 13.5,4.0
# From MPEC 2022-WQ9
440P/Kobayashi,e,12.3392,328.8679,183.2958,8.579522,0.0392202,0.76042632,17.8097,06/27.0/2023,2000,g 15.5,4.0
# From MPEC 2022-X67
441P/PANSTARRS,e,2.5744,143.6123,178.8179,4.134403,0.1172424,0.19530385,265.6265,06/27.0/2023,2000,g 13.5,4.0
# From MPEC 2023-J29
442P/McNaught,e,6.0589,32.0147,310.8450,4.971853,0.0889051,0.53316750,27.7591,06/27.0/2023,2000,g 13.5,4.0
# From MPEC 2023-M14
443P/PANSTARRS-Christensen,e,19.8881,108.9429,145.1144,4.126518,0.1175787,0.28359989,30.5526,06/27.0/2023,2000,g 13.5,4.0
# From MPEC 2022-YN2
444P/WISE-PANSTARRS,e,22.1299,89.3287,171.0369,3.431996,0.1550186,0.57057435,54.4854,06/27.0/2023,2000,g 17.0,4.0
# From MPEC 2022-YB4
445P/Lemmon-PANSTARRS,e,1.0885,126.5906,213.5457,4.056987,0.1206143,0.41424157,37.8320,06/27.0/2023,2000,g 15.0,4.0
# From MPEC 2022-WQ9
446P/McNaught,e,16.6135,336.3927,344.7023,4.568778,0.1009262,0.64694859,39.7115,06/27.0/2023,2000,g 16.5,4.0
# From MPEC 2022-YB4
447P/Sheppard-Tholen,e,7.4351,302.6544,97.7177,5.637580,0.0736317,0.17922077,22.9523,06/27.0/2023,2000,g 12.0,4.0
# From MPEC 2023-A50
448P/PANSTARRS,e,12.1515,161.7538,218.7238,3.634137,0.1422664,0.41881665,41.7521,06/27.0/2023,2000,g 16.0,4.0
# From MPEC 2022-UE6
449P/Leonard,e,15.4674,242.5278,176.6996,3.600188,0.1442834,0.47970434,136.3360,06/27.0/2023,2000,g 16.0,4.0
# From MPEC 2022-TA6
450P/LONEOS,e,10.5524,124.8437,21.1479,7.973378,0.0437765,0.31096202,303.0901,06/27.0/2023,2000,g  6.5,4.0
# From MPEC 2023-HD1
451P/Christensen,e,26.4808,300.9087,186.7026,6.340560,0.0617323,0.55863121,13.0532,06/27.0/2023,2000,g 15.5,4.0
# From MPEC 2023-J29
452P/Sheppard-Jewitt,e,6.4221,123.6962,37.0454,7.297225,0.0499997,0.42742993,3.1198,06/27.0/2023,2000,g  9.0,4.0
# From MPEC 2023-KD6
453P/WISE-Lemmon,e,27.0678,42.8968,70.8324,5.458549,0.0772838,0.58258324,8.9620,06/27.0/2023,2000,g 14.0,4.0
# From MPEC 2023-CD7
454P/PANSTARRS,e,19.8124,54.5858,20.0228,4.206259,0.1142510,0.36143431,38.3770,06/27.0/2023,2000,g 14.0,4.0
# From MPEC 2022-Y14
455P/PANSTARRS,e,14.1369,146.1910,237.5331,3.153908,0.1759667,0.30512363,21.4096,06/27.0/2023,2000,g 17.0,4.0
# From MPEC 2023-MA9
456P/PANSTARRS,e,16.9600,243.1915,234.2679,3.167460,0.1748386,0.11803075,244.0511,06/27.0/2023,2000,g 13.5,4.0
# From MPEC 2023-F99
457P/Lemmon-PANSTARRS,e,5.2255,175.9750,104.4619,2.645862,0.2290093,0.11881911,263.6888,06/27.0/2023,2000,g 15.5,4.0
# From MPEC 2023-HD1
458P/Jahn,e,13.6286,1.5875,104.7975,3.856160,0.1301582,0.31688346,31.2185,06/27.0/2023,2000,g 17.3,4.0
# From MPEC 2023-MA9
459P/Catalina,e,7.1719,256.9974,205.1847,3.238856,0.1690895,0.57757393,21.2400,06/27.0/2023,2000,g 15.5,4.0
# From MPEC 2023-G14
460P/PANSTARRS,e,18.8958,180.5146,351.9700,3.027013,0.1871469,0.66416017,138.5382,06/27.0/2023,2000,g 21.0,4.0
# From MPC107687
1I/`Oumuamua,h,09/09.4886/2017,122.6778,24.5997,241.6845,1.199252,0.255240,2000,23.0,2.0
# From MPEC 2023-L37
